<?xml version="1.0" encoding="UTF-8"?>
<ndm xmlns:xsi="http://www.w3.org/2001/XMLSchema-instance" xsi:noNamespaceSchemaLocation="https://sanaregistry.org/r/ndmxml_unqualified/ndmxml-2.0.0-master-2.0.xsd">
<omm id="CCSDS_OMM_VERS" version="2.0">
<header><CREATION_DATE/><ORIGINATOR/></header><body><segment><metadata><OBJECT_NAME>ORBCOMM FM05</OBJECT_NAME><OBJECT_ID>1997-084F</OBJECT_ID><CENTER_NAME>EARTH</CENTER_NAME><REF_FRAME>TEME</REF_FRAME><TIME_SYSTEM>UTC</TIME_SYSTEM><MEAN_ELEMENT_THEORY>SGP4</MEAN_ELEMENT_THEORY></metadata><data><meanElements><EPOCH>2025-10-12T09:10:56.824032</EPOCH><MEAN_MOTION>14.46360390</MEAN_MOTION><ECCENTRICITY>.00026633</ECCENTRICITY><INCLINATION>45.0129</INCLINATION><RA_OF_ASC_NODE>165.2031</RA_OF_ASC_NODE><ARG_OF_PERICENTER>67.0874</ARG_OF_PERICENTER><MEAN_ANOMALY>293.0258</MEAN_ANOMALY></meanElements><tleParameters><EPHEMERIS_TYPE>0</EPHEMERIS_TYPE><CLASSIFICATION_TYPE>U</CLASSIFICATION_TYPE><NORAD_CAT_ID>25117</NORAD_CAT_ID><ELEMENT_SET_NO>999</ELEMENT_SET_NO><REV_AT_EPOCH>45757</REV_AT_EPOCH><BSTAR>.59797692E-3</BSTAR><MEAN_MOTION_DOT>.2022E-4</MEAN_MOTION_DOT><MEAN_MOTION_DDOT>0</MEAN_MOTION_DDOT></tleParameters></data></segment></body></omm>
<omm id="CCSDS_OMM_VERS" version="2.0">
<header><CREATION_DATE/><ORIGINATOR/></header><body><segment><metadata><OBJECT_NAME>ORBCOMM FM06</OBJECT_NAME><OBJECT_ID>1997-084G</OBJECT_ID><CENTER_NAME>EARTH</CENTER_NAME><REF_FRAME>TEME</REF_FRAME><TIME_SYSTEM>UTC</TIME_SYSTEM><MEAN_ELEMENT_THEORY>SGP4</MEAN_ELEMENT_THEORY></metadata><data><meanElements><EPOCH>2025-10-12T09:29:39.744960</EPOCH><MEAN_MOTION>14.46517169</MEAN_MOTION><ECCENTRICITY>.00016836</ECCENTRICITY><INCLINATION>45.0123</INCLINATION><RA_OF_ASC_NODE>164.7431</RA_OF_ASC_NODE><ARG_OF_PERICENTER>55.2296</ARG_OF_PERICENTER><MEAN_ANOMALY>114.3002</MEAN_ANOMALY></meanElements><tleParameters><EPHEMERIS_TYPE>0</EPHEMERIS_TYPE><CLASSIFICATION_TYPE>U</CLASSIFICATION_TYPE><NORAD_CAT_ID>25118</NORAD_CAT_ID><ELEMENT_SET_NO>999</ELEMENT_SET_NO><REV_AT_EPOCH>45849</REV_AT_EPOCH><BSTAR>.60838776E-3</BSTAR><MEAN_MOTION_DOT>.2067E-4</MEAN_MOTION_DOT><MEAN_MOTION_DDOT>0</MEAN_MOTION_DDOT></tleParameters></data></segment></body></omm>
<omm id="CCSDS_OMM_VERS" version="2.0">
<header><CREATION_DATE/><ORIGINATOR/></header><body><segment><metadata><OBJECT_NAME>ORBCOMM FM07</OBJECT_NAME><OBJECT_ID>1997-084H</OBJECT_ID><CENTER_NAME>EARTH</CENTER_NAME><REF_FRAME>TEME</REF_FRAME><TIME_SYSTEM>UTC</TIME_SYSTEM><MEAN_ELEMENT_THEORY>SGP4</MEAN_ELEMENT_THEORY></metadata><data><meanElements><EPOCH>2025-10-12T09:01:37.393536</EPOCH><MEAN_MOTION>14.46532963</MEAN_MOTION><ECCENTRICITY>.00035202</ECCENTRICITY><INCLINATION>45.0117</INCLINATION><RA_OF_ASC_NODE>165.5966</RA_OF_ASC_NODE><ARG_OF_PERICENTER>68.2908</ARG_OF_PERICENTER><MEAN_ANOMALY>291.8318</MEAN_ANOMALY></meanElements><tleParameters><EPHEMERIS_TYPE>0</EPHEMERIS_TYPE><CLASSIFICATION_TYPE>U</CLASSIFICATION_TYPE><NORAD_CAT_ID>25119</NORAD_CAT_ID><ELEMENT_SET_NO>999</ELEMENT_SET_NO><REV_AT_EPOCH>45848</REV_AT_EPOCH><BSTAR>.6268666E-3</BSTAR><MEAN_MOTION_DOT>.2135E-4</MEAN_MOTION_DOT><MEAN_MOTION_DDOT>0</MEAN_MOTION_DDOT></tleParameters></data></segment></body></omm>
<omm id="CCSDS_OMM_VERS" version="2.0">
<header><CREATION_DATE/><ORIGINATOR/></header><body><segment><metadata><OBJECT_NAME>ORBCOMM FM03</OBJECT_NAME><OBJECT_ID>1998-007B</OBJECT_ID><CENTER_NAME>EARTH</CENTER_NAME><REF_FRAME>TEME</REF_FRAME><TIME_SYSTEM>UTC</TIME_SYSTEM><MEAN_ELEMENT_THEORY>SGP4</MEAN_ELEMENT_THEORY></metadata><data><meanElements><EPOCH>2025-10-12T04:46:02.939232</EPOCH><MEAN_MOTION>14.34790464</MEAN_MOTION><ECCENTRICITY>.00428195</ECCENTRICITY><INCLINATION>107.9630</INCLINATION><RA_OF_ASC_NODE>16.0125</RA_OF_ASC_NODE><ARG_OF_PERICENTER>42.5440</ARG_OF_PERICENTER><MEAN_ANOMALY>317.9005</MEAN_ANOMALY></meanElements><tleParameters><EPHEMERIS_TYPE>0</EPHEMERIS_TYPE><CLASSIFICATION_TYPE>U</CLASSIFICATION_TYPE><NORAD_CAT_ID>25158</NORAD_CAT_ID><ELEMENT_SET_NO>999</ELEMENT_SET_NO><REV_AT_EPOCH>44082</REV_AT_EPOCH><BSTAR>.51482141E-3</BSTAR><MEAN_MOTION_DOT>.1345E-4</MEAN_MOTION_DOT><MEAN_MOTION_DDOT>0</MEAN_MOTION_DDOT></tleParameters></data></segment></body></omm>
<omm id="CCSDS_OMM_VERS" version="2.0">
<header><CREATION_DATE/><ORIGINATOR/></header><body><segment><metadata><OBJECT_NAME>ORBCOMM FM04</OBJECT_NAME><OBJECT_ID>1998-007C</OBJECT_ID><CENTER_NAME>EARTH</CENTER_NAME><REF_FRAME>TEME</REF_FRAME><TIME_SYSTEM>UTC</TIME_SYSTEM><MEAN_ELEMENT_THEORY>SGP4</MEAN_ELEMENT_THEORY></metadata><data><meanElements><EPOCH>2025-10-12T03:54:29.600640</EPOCH><MEAN_MOTION>14.35033859</MEAN_MOTION><ECCENTRICITY>.00386449</ECCENTRICITY><INCLINATION>107.9619</INCLINATION><RA_OF_ASC_NODE>19.2374</RA_OF_ASC_NODE><ARG_OF_PERICENTER>39.6258</ARG_OF_PERICENTER><MEAN_ANOMALY>320.7696</MEAN_ANOMALY></meanElements><tleParameters><EPHEMERIS_TYPE>0</EPHEMERIS_TYPE><CLASSIFICATION_TYPE>U</CLASSIFICATION_TYPE><NORAD_CAT_ID>25159</NORAD_CAT_ID><ELEMENT_SET_NO>999</ELEMENT_SET_NO><REV_AT_EPOCH>44100</REV_AT_EPOCH><BSTAR>.49030942E-3</BSTAR><MEAN_MOTION_DOT>.1279E-4</MEAN_MOTION_DOT><MEAN_MOTION_DDOT>0</MEAN_MOTION_DDOT></tleParameters></data></segment></body></omm>
<omm id="CCSDS_OMM_VERS" version="2.0">
<header><CREATION_DATE/><ORIGINATOR/></header><body><segment><metadata><OBJECT_NAME>ORBCOMM FM17</OBJECT_NAME><OBJECT_ID>1998-046A</OBJECT_ID><CENTER_NAME>EARTH</CENTER_NAME><REF_FRAME>TEME</REF_FRAME><TIME_SYSTEM>UTC</TIME_SYSTEM><MEAN_ELEMENT_THEORY>SGP4</MEAN_ELEMENT_THEORY></metadata><data><meanElements><EPOCH>2025-10-12T13:13:57.619776</EPOCH><MEAN_MOTION>14.35339166</MEAN_MOTION><ECCENTRICITY>.00027364</ECCENTRICITY><INCLINATION>44.9944</INCLINATION><RA_OF_ASC_NODE>63.6141</RA_OF_ASC_NODE><ARG_OF_PERICENTER>108.6024</ARG_OF_PERICENTER><MEAN_ANOMALY>251.5120</MEAN_ANOMALY></meanElements><tleParameters><EPHEMERIS_TYPE>0</EPHEMERIS_TYPE><CLASSIFICATION_TYPE>U</CLASSIFICATION_TYPE><NORAD_CAT_ID>25413</NORAD_CAT_ID><ELEMENT_SET_NO>999</ELEMENT_SET_NO><REV_AT_EPOCH>42003</REV_AT_EPOCH><BSTAR>.47628521E-3</BSTAR><MEAN_MOTION_DOT>.1237E-4</MEAN_MOTION_DOT><MEAN_MOTION_DDOT>0</MEAN_MOTION_DDOT></tleParameters></data></segment></body></omm>
<omm id="CCSDS_OMM_VERS" version="2.0">
<header><CREATION_DATE/><ORIGINATOR/></header><body><segment><metadata><OBJECT_NAME>ORBCOMM FM18</OBJECT_NAME><OBJECT_ID>1998-046B</OBJECT_ID><CENTER_NAME>EARTH</CENTER_NAME><REF_FRAME>TEME</REF_FRAME><TIME_SYSTEM>UTC</TIME_SYSTEM><MEAN_ELEMENT_THEORY>SGP4</MEAN_ELEMENT_THEORY></metadata><data><meanElements><EPOCH>2025-10-12T10:13:33.089952</EPOCH><MEAN_MOTION>14.38894276</MEAN_MOTION><ECCENTRICITY>.00049362</ECCENTRICITY><INCLINATION>44.9941</INCLINATION><RA_OF_ASC_NODE>338.4415</RA_OF_ASC_NODE><ARG_OF_PERICENTER>181.9297</ARG_OF_PERICENTER><MEAN_ANOMALY>178.1533</MEAN_ANOMALY></meanElements><tleParameters><EPHEMERIS_TYPE>0</EPHEMERIS_TYPE><CLASSIFICATION_TYPE>U</CLASSIFICATION_TYPE><NORAD_CAT_ID>25414</NORAD_CAT_ID><ELEMENT_SET_NO>999</ELEMENT_SET_NO><REV_AT_EPOCH>42113</REV_AT_EPOCH><BSTAR>.55295494E-3</BSTAR><MEAN_MOTION_DOT>.1577E-4</MEAN_MOTION_DOT><MEAN_MOTION_DDOT>0</MEAN_MOTION_DDOT></tleParameters></data></segment></body></omm>
<omm id="CCSDS_OMM_VERS" version="2.0">
<header><CREATION_DATE/><ORIGINATOR/></header><body><segment><metadata><OBJECT_NAME>ORBCOMM FM19</OBJECT_NAME><OBJECT_ID>1998-046C</OBJECT_ID><CENTER_NAME>EARTH</CENTER_NAME><REF_FRAME>TEME</REF_FRAME><TIME_SYSTEM>UTC</TIME_SYSTEM><MEAN_ELEMENT_THEORY>SGP4</MEAN_ELEMENT_THEORY></metadata><data><meanElements><EPOCH>2025-10-12T13:21:50.677920</EPOCH><MEAN_MOTION>14.38711328</MEAN_MOTION><ECCENTRICITY>.00037297</ECCENTRICITY><INCLINATION>44.9953</INCLINATION><RA_OF_ASC_NODE>340.0017</RA_OF_ASC_NODE><ARG_OF_PERICENTER>186.3684</ARG_OF_PERICENTER><MEAN_ANOMALY>327.4212</MEAN_ANOMALY></meanElements><tleParameters><EPHEMERIS_TYPE>0</EPHEMERIS_TYPE><CLASSIFICATION_TYPE>U</CLASSIFICATION_TYPE><NORAD_CAT_ID>25415</NORAD_CAT_ID><ELEMENT_SET_NO>999</ELEMENT_SET_NO><REV_AT_EPOCH>42110</REV_AT_EPOCH><BSTAR>.55879163E-3</BSTAR><MEAN_MOTION_DOT>.1588E-4</MEAN_MOTION_DOT><MEAN_MOTION_DDOT>0</MEAN_MOTION_DDOT></tleParameters></data></segment></body></omm>

</ndm>
