ORBCOMM FM05            
1 25117U 97084F   25285.38260213  .00002022  00000+0  59798-3 0  9997
2 25117  45.0129 165.2031 0002663  67.0874 293.0258 14.46360390457579
ORBCOMM FM06            
1 25118U 97084G   25285.39559890  .00002067  00000+0  60839-3 0  9998
2 25118  45.0123 164.7431 0001683  55.2296 114.3002 14.46517169458492
ORBCOMM FM07            
1 25119U 97084H   25285.37612724  .00002135  00000+0  62687-3 0  9992
2 25119  45.0117 165.5966 0003520  68.2908 291.8318 14.46532963458483
ORBCOMM FM03            
1 25158U 98007B   25285.19864513  .00001345  00000+0  51482-3 0  9999
2 25158 107.9630  16.0125 0042819  42.5440 317.9005 14.34790464440822
ORBCOMM FM04            
1 25159U 98007C   25285.16284260  .00001279  00000+0  49031-3 0  9995
2 25159 107.9619  19.2374 0038644  39.6258 320.7696 14.35033859441004
ORBCOMM FM17            
1 25413U 98046A   25285.55136134  .00001237  00000+0  47629-3 0  9995
2 25413  44.9944  63.6141 0002736 108.6024 251.5120 14.35339166420037
ORBCOMM FM18            
1 25414U 98046B   25285.42607743  .00001577  00000+0  55295-3 0  9996
2 25414  44.9941 338.4415 0004936 181.9297 178.1533 14.38894276421137
ORBCOMM FM19            
1 25415U 98046C   25285.55683655  .00001588  00000+0  55879-3 0  9997
2 25415  44.9953 340.0017 0003729 186.3684 327.4212 14.38711328421102
